CCSDS_OMM_VERS = 2.0
CREATION_DATE  = 
ORIGINATOR     = 

OBJECT_NAME    = UNKNOWN
OBJECT_ID      = 
CENTER_NAME    = EARTH
REF_FRAME      = TEME
TIME_SYSTEM    = UTC
MEAN_ELEMENT_THEORY = SGP/SGP4

EPOCH          = 2026-03-23T15:45:57.369600
MEAN_MOTION    = 14.16897767
ECCENTRICITY   = .0083293
INCLINATION    = 99.0162
RA_OF_ASC_NODE = 157.9035
ARG_OF_PERICENTER = 114.3891
MEAN_ANOMALY   = 246.6004

EPHEMERIS_TYPE = 0
CLASSIFICATION_TYPE = U
NORAD_CAT_ID   = 89493
ELEMENT_SET_NO = 999
REV_AT_EPOCH   = 47823
BSTAR          = .1326E-2
MEAN_MOTION_DOT = .2707E-4
MEAN_MOTION_DDOT = 0

CCSDS_OMM_VERS = 2.0
CREATION_DATE  = 
ORIGINATOR     = 

OBJECT_NAME    = UNKNOWN
OBJECT_ID      = 
CENTER_NAME    = EARTH
REF_FRAME      = TEME
TIME_SYSTEM    = UTC
MEAN_ELEMENT_THEORY = SGP/SGP4

EPOCH          = 2026-03-27T04:13:59.409984
MEAN_MOTION    = 14.16850432
ECCENTRICITY   = .0083217
INCLINATION    = 99.0150
RA_OF_ASC_NODE = 161.3434
ARG_OF_PERICENTER = 105.0248
MEAN_ANOMALY   = 256.0154

EPHEMERIS_TYPE = 0
CLASSIFICATION_TYPE = U
NORAD_CAT_ID   = 89494
ELEMENT_SET_NO = 999
REV_AT_EPOCH   = 47858
BSTAR          = .11545E-2
MEAN_MOTION_DOT = .2349E-4
MEAN_MOTION_DDOT = 0

CCSDS_OMM_VERS = 2.0
CREATION_DATE  = 
ORIGINATOR     = 

OBJECT_NAME    = UNKNOWN
OBJECT_ID      = 
CENTER_NAME    = EARTH
REF_FRAME      = TEME
TIME_SYSTEM    = UTC
MEAN_ELEMENT_THEORY = SGP/SGP4

EPOCH          = 2026-03-26T03:30:26.025984
MEAN_MOTION    = 12.96155441
ECCENTRICITY   = .00317062
INCLINATION    = 90.2321
RA_OF_ASC_NODE = 346.0935
ARG_OF_PERICENTER = 340.4947
MEAN_ANOMALY   = 19.4957

EPHEMERIS_TYPE = 0
CLASSIFICATION_TYPE = U
NORAD_CAT_ID   = 270000
ELEMENT_SET_NO = 999
REV_AT_EPOCH   = 29933
BSTAR          = .19697778E-3
MEAN_MOTION_DOT = .63E-6
MEAN_MOTION_DDOT = 0

CCSDS_OMM_VERS = 2.0
CREATION_DATE  = 
ORIGINATOR     = 

OBJECT_NAME    = UNKNOWN
OBJECT_ID      = 
CENTER_NAME    = EARTH
REF_FRAME      = TEME
TIME_SYSTEM    = UTC
MEAN_ELEMENT_THEORY = SGP/SGP4

EPOCH          = 2026-03-28T00:22:12.377856
MEAN_MOTION    = 12.45704096
ECCENTRICITY   = .00424761
INCLINATION    = 101.8211
RA_OF_ASC_NODE = 198.2561
ARG_OF_PERICENTER = 17.1275
MEAN_ANOMALY   = 343.1216

EPHEMERIS_TYPE = 0
CLASSIFICATION_TYPE = U
NORAD_CAT_ID   = 270001
ELEMENT_SET_NO = 999
REV_AT_EPOCH   = 28804
BSTAR          = .66591407E-3
MEAN_MOTION_DOT = .52E-6
MEAN_MOTION_DDOT = 0

CCSDS_OMM_VERS = 2.0
CREATION_DATE  = 
ORIGINATOR     = 

OBJECT_NAME    = UNKNOWN
OBJECT_ID      = 
CENTER_NAME    = EARTH
REF_FRAME      = TEME
TIME_SYSTEM    = UTC
MEAN_ELEMENT_THEORY = SGP/SGP4

EPOCH          = 2026-03-26T08:18:05.150016
MEAN_MOTION    = 13.06862666
ECCENTRICITY   = .05019309
INCLINATION    = 99.6468
RA_OF_ASC_NODE = 119.0768
ARG_OF_PERICENTER = 0.1281
MEAN_ANOMALY   = 359.9879

EPHEMERIS_TYPE = 0
CLASSIFICATION_TYPE = U
NORAD_CAT_ID   = 270003
ELEMENT_SET_NO = 999
REV_AT_EPOCH   = 30087
BSTAR          = .76013895E-3
MEAN_MOTION_DOT = .426E-5
MEAN_MOTION_DDOT = 0

CCSDS_OMM_VERS = 2.0
CREATION_DATE  = 
ORIGINATOR     = 

OBJECT_NAME    = UNKNOWN
OBJECT_ID      = 
CENTER_NAME    = EARTH
REF_FRAME      = TEME
TIME_SYSTEM    = UTC
MEAN_ELEMENT_THEORY = SGP/SGP4

EPOCH          = 2026-03-25T03:18:04.802976
MEAN_MOTION    = 12.23880263
ECCENTRICITY   = .01625635
INCLINATION    = 101.7122
RA_OF_ASC_NODE = 226.8921
ARG_OF_PERICENTER = 333.2960
MEAN_ANOMALY   = 25.9794

EPHEMERIS_TYPE = 0
CLASSIFICATION_TYPE = U
NORAD_CAT_ID   = 270004
ELEMENT_SET_NO = 999
REV_AT_EPOCH   = 28270
BSTAR          = .14703504E-2
MEAN_MOTION_DOT = .125E-5
MEAN_MOTION_DDOT = 0

CCSDS_OMM_VERS = 2.0
CREATION_DATE  = 
ORIGINATOR     = 

OBJECT_NAME    = UNKNOWN
OBJECT_ID      = 
CENTER_NAME    = EARTH
REF_FRAME      = TEME
TIME_SYSTEM    = UTC
MEAN_ELEMENT_THEORY = SGP/SGP4

EPOCH          = 2026-03-14T18:59:11.707872
MEAN_MOTION    = 12.16847083
ECCENTRICITY   = .03513944
INCLINATION    = 103.0741
RA_OF_ASC_NODE = 270.7999
ARG_OF_PERICENTER = 9.4860
MEAN_ANOMALY   = 351.2606

EPHEMERIS_TYPE = 0
CLASSIFICATION_TYPE = U
NORAD_CAT_ID   = 270005
ELEMENT_SET_NO = 999
REV_AT_EPOCH   = 27881
BSTAR          = .16962946E-1
MEAN_MOTION_DOT = .2E-4
MEAN_MOTION_DDOT = 0

CCSDS_OMM_VERS = 2.0
CREATION_DATE  = 
ORIGINATOR     = 

OBJECT_NAME    = UNKNOWN
OBJECT_ID      = 
CENTER_NAME    = EARTH
REF_FRAME      = TEME
TIME_SYSTEM    = UTC
MEAN_ELEMENT_THEORY = SGP/SGP4

EPOCH          = 2026-03-27T16:03:53.102304
MEAN_MOTION    = 12.38825015
ECCENTRICITY   = .00941705
INCLINATION    = 102.2729
RA_OF_ASC_NODE = 54.2947
ARG_OF_PERICENTER = 80.0051
MEAN_ANOMALY   = 281.1623

EPHEMERIS_TYPE = 0
CLASSIFICATION_TYPE = U
NORAD_CAT_ID   = 270006
ELEMENT_SET_NO = 999
REV_AT_EPOCH   = 28648
BSTAR          = .26515824E-3
MEAN_MOTION_DOT = -.1E-6
MEAN_MOTION_DDOT = 0

CCSDS_OMM_VERS = 2.0
CREATION_DATE  = 
ORIGINATOR     = 

OBJECT_NAME    = UNKNOWN
OBJECT_ID      = 
CENTER_NAME    = EARTH
REF_FRAME      = TEME
TIME_SYSTEM    = UTC
MEAN_ELEMENT_THEORY = SGP/SGP4

EPOCH          = 2026-03-21T07:55:21.754560
MEAN_MOTION    = 12.91563364
ECCENTRICITY   = .05652094
INCLINATION    = 31.9985
RA_OF_ASC_NODE = 320.8988
ARG_OF_PERICENTER = 289.2529
MEAN_ANOMALY   = 64.7771

EPHEMERIS_TYPE = 0
CLASSIFICATION_TYPE = U
NORAD_CAT_ID   = 270007
ELEMENT_SET_NO = 999
REV_AT_EPOCH   = 29831
BSTAR          = .26767565E-3
MEAN_MOTION_DOT = .177E-5
MEAN_MOTION_DDOT = 0

CCSDS_OMM_VERS = 2.0
CREATION_DATE  = 
ORIGINATOR     = 

OBJECT_NAME    = UNKNOWN
OBJECT_ID      = 
CENTER_NAME    = EARTH
REF_FRAME      = TEME
TIME_SYSTEM    = UTC
MEAN_ELEMENT_THEORY = SGP/SGP4

EPOCH          = 2026-03-27T13:30:52.144128
MEAN_MOTION    = 12.97630739
ECCENTRICITY   = .00320886
INCLINATION    = 90.2746
RA_OF_ASC_NODE = 26.0265
ARG_OF_PERICENTER = 281.9707
MEAN_ANOMALY   = 77.7818

EPHEMERIS_TYPE = 0
CLASSIFICATION_TYPE = U
NORAD_CAT_ID   = 270008
ELEMENT_SET_NO = 999
REV_AT_EPOCH   = 29987
BSTAR          = -.16131914E-3
MEAN_MOTION_DOT = -.4E-6
MEAN_MOTION_DDOT = 0

CCSDS_OMM_VERS = 2.0
CREATION_DATE  = 
ORIGINATOR     = 

OBJECT_NAME    = UNKNOWN
OBJECT_ID      = 
CENTER_NAME    = EARTH
REF_FRAME      = TEME
TIME_SYSTEM    = UTC
MEAN_ELEMENT_THEORY = SGP/SGP4

EPOCH          = 2026-03-23T22:39:41.790816
MEAN_MOTION    = 11.90745979
ECCENTRICITY   = .00522973
INCLINATION    = 82.5041
RA_OF_ASC_NODE = 151.5547
ARG_OF_PERICENTER = 243.5605
MEAN_ANOMALY   = 116.0073

EPHEMERIS_TYPE = 0
CLASSIFICATION_TYPE = U
NORAD_CAT_ID   = 270009
ELEMENT_SET_NO = 999
REV_AT_EPOCH   = 27486
BSTAR          = .59301591E-3
MEAN_MOTION_DOT = .51E-6
MEAN_MOTION_DDOT = 0

CCSDS_OMM_VERS = 2.0
CREATION_DATE  = 
ORIGINATOR     = 

OBJECT_NAME    = UNKNOWN
OBJECT_ID      = 
CENTER_NAME    = EARTH
REF_FRAME      = TEME
TIME_SYSTEM    = UTC
MEAN_ELEMENT_THEORY = SGP/SGP4

EPOCH          = 2026-03-25T07:54:27.559296
MEAN_MOTION    = 12.81108403
ECCENTRICITY   = .03309367
INCLINATION    = 103.9042
RA_OF_ASC_NODE = 113.1873
ARG_OF_PERICENTER = 298.5474
MEAN_ANOMALY   = 58.2666

EPHEMERIS_TYPE = 0
CLASSIFICATION_TYPE = U
NORAD_CAT_ID   = 270010
ELEMENT_SET_NO = 999
REV_AT_EPOCH   = 29349
BSTAR          = .86700431E-2
MEAN_MOTION_DOT = .2463E-4
MEAN_MOTION_DDOT = 0

CCSDS_OMM_VERS = 2.0
CREATION_DATE  = 
ORIGINATOR     = 

OBJECT_NAME    = UNKNOWN
OBJECT_ID      = 
CENTER_NAME    = EARTH
REF_FRAME      = TEME
TIME_SYSTEM    = UTC
MEAN_ELEMENT_THEORY = SGP/SGP4

EPOCH          = 2026-03-25T13:52:32.699136
MEAN_MOTION    = 13.60404370
ECCENTRICITY   = .00483894
INCLINATION    = 100.9678
RA_OF_ASC_NODE = 26.0397
ARG_OF_PERICENTER = 84.1155
MEAN_ANOMALY   = 276.5493

EPHEMERIS_TYPE = 0
CLASSIFICATION_TYPE = U
NORAD_CAT_ID   = 270011
ELEMENT_SET_NO = 999
REV_AT_EPOCH   = 30538
BSTAR          = .33375299E-1
MEAN_MOTION_DOT = .25285E-3
MEAN_MOTION_DDOT = 0

CCSDS_OMM_VERS = 2.0
CREATION_DATE  = 
ORIGINATOR     = 

OBJECT_NAME    = UNKNOWN
OBJECT_ID      = 
CENTER_NAME    = EARTH
REF_FRAME      = TEME
TIME_SYSTEM    = UTC
MEAN_ELEMENT_THEORY = SGP/SGP4

EPOCH          = 2026-03-27T11:36:39.888000
MEAN_MOTION    = 12.97074783
ECCENTRICITY   = .00329861
INCLINATION    = 90.2373
RA_OF_ASC_NODE = 357.4847
ARG_OF_PERICENTER = 293.7086
MEAN_ANOMALY   = 66.0575

EPHEMERIS_TYPE = 0
CLASSIFICATION_TYPE = U
NORAD_CAT_ID   = 270012
ELEMENT_SET_NO = 999
REV_AT_EPOCH   = 29975
BSTAR          = .11856228E-3
MEAN_MOTION_DOT = .41E-6
MEAN_MOTION_DDOT = 0

CCSDS_OMM_VERS = 2.0
CREATION_DATE  = 
ORIGINATOR     = 

OBJECT_NAME    = UNKNOWN
OBJECT_ID      = 
CENTER_NAME    = EARTH
REF_FRAME      = TEME
TIME_SYSTEM    = UTC
MEAN_ELEMENT_THEORY = SGP/SGP4

EPOCH          = 2026-03-24T03:55:16.273920
MEAN_MOTION    = 12.16570765
ECCENTRICITY   = .01553893
INCLINATION    = 102.6931
RA_OF_ASC_NODE = 51.3820
ARG_OF_PERICENTER = 28.1127
MEAN_ANOMALY   = 332.8206

EPHEMERIS_TYPE = 0
CLASSIFICATION_TYPE = U
NORAD_CAT_ID   = 270013
ELEMENT_SET_NO = 999
REV_AT_EPOCH   = 28087
BSTAR          = .75999051E-3
MEAN_MOTION_DOT = .33E-6
MEAN_MOTION_DDOT = 0

CCSDS_OMM_VERS = 2.0
CREATION_DATE  = 
ORIGINATOR     = 

OBJECT_NAME    = UNKNOWN
OBJECT_ID      = 
CENTER_NAME    = EARTH
REF_FRAME      = TEME
TIME_SYSTEM    = UTC
MEAN_ELEMENT_THEORY = SGP/SGP4

EPOCH          = 2026-03-23T16:47:35.045088
MEAN_MOTION    = 12.55080307
ECCENTRICITY   = .00641796
INCLINATION    = 101.8619
RA_OF_ASC_NODE = 67.4689
ARG_OF_PERICENTER = 204.3908
MEAN_ANOMALY   = 155.4123

EPHEMERIS_TYPE = 0
CLASSIFICATION_TYPE = U
NORAD_CAT_ID   = 270014
ELEMENT_SET_NO = 999
REV_AT_EPOCH   = 28959
BSTAR          = .73628198E-3
MEAN_MOTION_DOT = .75E-6
MEAN_MOTION_DDOT = 0

